NORAD_CAT_ID,OBJECT_NAME,OBJECT_TYPE,EPOCH,MEAN_MOTION,ECCENTRICITY,INCLINATION,RA_OF_ASC_NODE,ARG_OF_PERICENTER,MEAN_ANOMALY,BSTAR,MEAN_MOTION_DOT,MEAN_MOTION_DDOT,TLE_LINE0,TLE_LINE1,TLE_LINE2,SEMIMAJOR_AXIS,PERIOD,APOGEE,PERIGEE,DECAYED
52608.0,STARLINK-3979,PAYLOAD,2023-09-04 13:13:24,15.08831452,0.0001111,53.2197,76.3166,95.2298,264.8821,-2.5596e-05,-6.95e-06,0.0,0 STARLINK-3979,1 52608U 22052L   23247.55097845 -.00000695  00000-0 -25596-4 0  9996,2 52608  53.2197  76.3166 0001111  95.2298 264.8821 15.08831452 72409,6917.907,95.438,540.54,539.003,0.0
52608.0,STARLINK-3979,PAYLOAD,2023-09-05 11:28:48,15.08835475,0.0001352,53.2196,72.1552,103.132,256.9823,2.7799e-05,1.54e-06,0.0,0 STARLINK-3979,1 52608U 22052L   23248.47833800  .00000154  00000-0  27799-4 0  9992,2 52608  53.2196  72.1552 0001352 103.1320 256.9823 15.08835475 72912,6917.894,95.438,540.695,538.824,0.0
52608.0,STARLINK-3979,PAYLOAD,2023-09-05 13:04:11,15.08799015,0.0001295,53.2189,71.8583,83.3577,276.7562,0.00050445,7.741e-05,0.0,0 STARLINK-3979,1 52608U 22052L   23248.54457567  .00007741  00000-0  50445-3 0  9994,2 52608  53.2189  71.8583 0001295  83.3577 276.7562 15.08799015 72552,6918.006,95.44,540.767,538.975,0.0
52608.0,STARLINK-3979,PAYLOAD,2023-09-05 19:25:44,15.08794355,0.0001362,53.219,70.6699,79.2043,280.9102,0.0006963,0.00010797,0.0,0 STARLINK-3979,1 52608U 22052L   23248.80953779  .00010797  00000-0  69630-3 0  9990,2 52608  53.2190  70.6699 0001362  79.2043 280.9102 15.08794355 72960,6918.02,95.44,540.827,538.943,0.0
52608.0,STARLINK-3979,PAYLOAD,2023-09-06 12:54:58,15.08833526,0.0001391,53.2181,67.3968,86.7001,273.415,4.6879e-05,4.58e-06,0.0,0 STARLINK-3979,1 52608U 22052L   23249.53818201  .00000458  00000-0  46879-4 0  9995,2 52608  53.2181  67.3968 0001391  86.7001 273.4150 15.08833526 72707,6917.9,95.438,540.727,538.803,0.0
52608.0,STARLINK-3979,PAYLOAD,2023-09-06 20:51:54,15.0883628,0.0001311,53.2174,65.9105,84.3782,275.736,7.4719e-05,9.01e-06,0.0,0 STARLINK-3979,1 52608U 22052L   23249.86938038  .00000901  00000-0  74719-4 0  9999,2 52608  53.2174  65.9105 0001311  84.3782 275.7360 15.08836280 72751,6917.892,95.438,540.664,538.85,0.0
52608.0,STARLINK-3979,PAYLOAD,2023-09-07 12:45:45,15.08841703,0.0001366,53.2175,62.9359,92.6392,267.4756,6.1844e-08,-2.87e-06,0.0,0 STARLINK-3979,1 52608U 22052L   23250.53178051 -.00000287  00000-0  61844-7 0  9992,2 52608  53.2175  62.9359 0001366  92.6392 267.4756 15.08841703 72853,6917.875,95.437,540.685,538.795,0.0
52608.0,STARLINK-3979,PAYLOAD,2023-09-07 20:42:41,15.08844164,0.0001409,53.2174,61.449,90.6962,269.4192,1.9214e-05,1.8e-07,0.0,0 STARLINK-3979,1 52608U 22052L   23250.86297828  .00000018  00000-0  19214-4 0  9994,2 52608  53.2174  61.4490 0001409  90.6962 269.4192 15.08844164 72907,6917.868,95.437,540.707,538.758,0.0
52608.0,STARLINK-3979,PAYLOAD,2023-09-08 04:39:38,15.08810551,0.0001483,53.2166,59.9618,94.8087,265.3074,0.00044502,6.796e-05,0.0,0 STARLINK-3979,1 52608U 22052L   23251.19419024  .00006796  00000-0  44502-3 0  9991,2 52608  53.2166  59.9618 0001483  94.8087 265.3074 15.08810551 73322,6917.97,95.439,540.861,538.809,0.0
52608.0,STARLINK-3979,PAYLOAD,2023-09-08 17:22:42,15.08841165,0.0001249,53.2179,57.5832,85.7439,274.3696,4.2394e-05,3.87e-06,0.0,0 STARLINK-3979,1 52608U 22052L   23251.72409980  .00000387  00000-0  42394-4 0  9998,2 52608  53.2179  57.5832 0001249  85.7439 274.3696 15.08841165 73402,6917.877,95.437,540.606,538.878,0.0
52608.0,STARLINK-3979,PAYLOAD,2023-09-08 18:58:05,15.08842596,0.0001288,53.2185,57.2863,85.2632,274.8507,6.0588e-05,6.77e-06,0.0,0 STARLINK-3979,1 52608U 22052L   23251.79033867  .00000677  00000-0  60588-4 0  9999,2 52608  53.2185  57.2863 0001288  85.2632 274.8507 15.08842596 73048,6917.872,95.437,540.628,538.846,0.0
52608.0,STARLINK-3979,PAYLOAD,2023-09-09 10:51:56,15.08837923,0.0001285,53.2189,54.3141,83.4364,276.6775,7.7471e-05,9.45e-06,0.0,0 STARLINK-3979,1 52608U 22052L   23252.45274073  .00000945  00000-0  77471-4 0  9996,2 52608  53.2189  54.3141 0001285  83.4364 276.6775 15.08837923 73144,6917.887,95.438,540.641,538.863,0.0
52608.0,STARLINK-3979,PAYLOAD,2023-09-09 17:13:28,15.08857338,0.0001346,53.2189,53.125,70.4248,289.6889,-0.00011058,-2.048e-05,0.0,0 STARLINK-3979,1 52608U 22052L   23252.71769372 -.00002048  00000-0 -11058-3 0  9992,2 52608  53.2189  53.1250 0001346  70.4248 289.6889 15.08857338 73554,6917.827,95.436,540.624,538.761,0.0
52608.0,STARLINK-3979,PAYLOAD,2023-09-10 10:42:43,15.08839877,0.0001353,53.2193,49.855,77.5152,282.5992,1.9754e-05,2.6e-07,0.0,0 STARLINK-3979,1 52608U 22052L   23253.44634023  .00000026  00000-0  19754-4 0  9991,2 52608  53.2193  49.8550 0001353  77.5152 282.5992 15.08839877 73661,6917.881,95.438,540.682,538.81,0.0
52608.0,STARLINK-3979,PAYLOAD,2023-09-10 13:53:30,15.08837347,0.0001341,53.2188,49.2604,77.4122,282.702,2.122e-05,5e-07,0.0,0 STARLINK-3979,1 52608U 22052L   23253.57882197  .00000050  00000-0  21220-4 0  9990,2 52608  53.2188  49.2604 0001341  77.4122 282.7020 15.08837347 73318,6917.888,95.438,540.681,538.826,0.0
52608.0,STARLINK-3979,PAYLOAD,2023-09-11 13:44:17,15.08817612,0.0001238,53.2199,44.7994,93.2005,266.9129,0.00027285,4.055e-05,0.0,0 STARLINK-3979,1 52608U 22052L   23254.57242816  .00004055  00000-0  27285-3 0  9994,2 52608  53.2199  44.7994 0001238  93.2005 266.9129 15.08817612 73466,6917.949,95.439,540.67,538.957,0.0
52608.0,STARLINK-3979,PAYLOAD,2023-09-11 16:55:03,15.08840321,0.0001305,53.2199,44.2046,97.0574,263.0566,6.4226e-06,-1.86e-06,0.0,0 STARLINK-3979,1 52608U 22052L   23254.70490037 -.00000186  00000-0  64226-5 0  9999,2 52608  53.2199  44.2046 0001305  97.0574 263.0566 15.08840321 73856,6917.879,95.438,540.647,538.842,0.0
52608.0,STARLINK-3979,PAYLOAD,2023-09-12 13:35:04,15.08839387,0.0001306,53.22,40.339,96.5647,263.5494,4.3556e-05,4.05e-06,0.0,0 STARLINK-3979,1 52608U 22052L   23255.56602046  .00000405  00000-0  43556-4 0  9994,2 52608  53.2200  40.3390 0001306  96.5647 263.5494 15.08839387 73613,6917.882,95.438,540.651,538.844,0.0
52608.0,STARLINK-3979,PAYLOAD,2023-09-12 16:45:50,15.08842788,0.0001238,53.2195,39.7452,92.9067,267.2067,9.3035e-05,1.193e-05,0.0,0 STARLINK-3979,1 52608U 22052L   23255.69849717  .00001193  00000-0  93035-4 0  9998,2 52608  53.2195  39.7452 0001238  92.9067 267.2067 15.08842788 73635,6917.872,95.437,540.593,538.88,0.0
52608.0,STARLINK-3979,PAYLOAD,2023-09-13 10:15:04,15.0883522,0.0001348,53.2196,36.4744,107.803,252.3109,0.00017179,2.447e-05,0.0,0 STARLINK-3979,1 52608U 22052L   23256.42713777  .00002447  00000-0  17179-3 0  9993,2 52608  53.2196  36.4744 0001348 107.8030 252.3109 15.08835220 74111,6917.895,95.438,540.693,538.827,0.0
52608.0,STARLINK-3979,PAYLOAD,2023-09-13 13:25:50,15.08847422,0.0001199,53.2197,35.8798,94.9721,265.1408,8.0265e-05,9.9e-06,0.0,0 STARLINK-3979,1 52608U 22052L   23256.55961429  .00000990  00000-0  80265-4 0  9994,2 52608  53.2197  35.8798 0001199  94.9721 265.1408 15.08847422 73762,6917.858,95.437,540.552,538.893,0.0
52608.0,STARLINK-3979,PAYLOAD,2023-09-13 16:36:36,15.08851424,0.0001279,53.2195,35.2854,104.6648,255.4486,0.00011255,1.504e-05,0.0,0 STARLINK-3979,1 52608U 22052L   23256.69209015  .00001504  00000-0  11255-3 0  9999,2 52608  53.2195  35.2854 0001279 104.6648 255.4486 15.08851424 74152,6917.845,95.437,540.595,538.826,0.0
52608.0,STARLINK-3979,PAYLOAD,2023-09-14 10:05:52,15.08832897,0.0001233,53.2191,32.013,86.4474,273.6659,-5.1175e-05,-1.102e-05,0.0,0 STARLINK-3979,1 52608U 22052L   23257.42074961 -.00001102  00000-0 -51175-4 0  9993,2 52608  53.2191  32.0130 0001233  86.4474 273.6659 15.08832897 74263,6917.902,95.438,540.62,538.914,0.0
52608.0,STARLINK-3979,PAYLOAD,2023-09-14 13:16:39,15.08828409,0.0001007,53.2189,31.4182,46.3997,313.7079,-8.2191e-05,-1.595e-05,0.0,0 STARLINK-3979,1 52608U 22052L   23257.55323480 -.00001595  00000-0 -82191-4 0  9998,2 52608  53.2189  31.4182 0001007  46.3997 313.7079 15.08828409 73911,6917.916,95.438,540.477,539.084,0.0
52608.0,STARLINK-3979,PAYLOAD,2023-09-14 18:02:49,15.08827362,0.0001139,53.2185,30.5256,78.0996,282.0124,-9.8875e-05,-1.86e-05,0.0,0 STARLINK-3979,1 52608U 22052L   23257.75195676 -.00001860  00000-0 -98875-4 0  9995,2 52608  53.2185  30.5256 0001139  78.0996 282.0124 15.08827362 74317,6917.919,95.438,540.572,538.996,0.0
52608.0,STARLINK-3979,PAYLOAD,2023-09-15 08:21:16,15.08840914,0.000105,53.2183,27.8484,78.6665,281.4445,-6.7883e-05,-1.368e-05,0.0,0 STARLINK-3979,1 52608U 22052L   23258.34811051 -.00001368  00000-0 -67883-4 0  9991,2 52608  53.2183  27.8484 0001050  78.6665 281.4445 15.08840914 74405,6917.878,95.437,540.469,539.016,0.0
52608.0,STARLINK-3979,PAYLOAD,2023-09-15 13:07:25,15.08843571,0.0001221,53.2188,26.9599,81.3407,278.7724,-3.487e-06,-3.43e-06,0.0,0 STARLINK-3979,1 52608U 22052L   23258.54682505 -.00000343  00000-0 -34870-5 0  9996,2 52608  53.2188  26.9599 0001221  81.3407 278.7724 15.08843571 74065,6917.869,95.437,540.579,538.89,0.0
52608.0,STARLINK-3979,PAYLOAD,2023-09-15 16:18:11,15.08854639,0.0001232,53.2188,26.3628,73.6347,286.4781,6.4888e-05,7.45e-06,0.0,0 STARLINK-3979,1 52608U 22052L   23258.67929612  .00000745  00000-0  64888-4 0  9998,2 52608  53.2188  26.3628 0001232  73.6347 286.4781 15.08854639 74450,6917.836,95.437,540.553,538.848,0.0
52608.0,STARLINK-3979,PAYLOAD,2023-09-16 08:12:03,15.08832294,0.0001267,53.2183,23.3918,67.6365,292.4761,0.0001692,2.405e-05,0.0,0 STARLINK-3979,1 52608U 22052L   23259.34170814  .00002405  00000-0  16920-3 0  9993,2 52608  53.2183  23.3918 0001267  67.6365 292.4761 15.08832294 74554,6917.904,95.438,540.645,538.892,0.0
52608.0,STARLINK-3979,PAYLOAD,2023-09-16 12:58:13,15.08831762,0.0001542,53.2192,22.499,70.9528,289.1631,0.00015434,2.169e-05,0.0,0 STARLINK-3979,1 52608U 22052L   23259.54043103  .00002169  00000-0  15434-3 0  9991,2 52608  53.2192  22.4990 0001542  70.9528 289.1631 15.08831762 74219,6917.906,95.438,540.837,538.704,0.0
